start=new Date('2022-02-21T00:00:00.000Z').valueOf();
sats=[{"EPHEMERIS_TYPE":"0","ECCENTRICITY":"0.00011620","MEAN_ELEMENT_THEORY":"SGP4","EPOCH":"2022-02-20T22:00:00.999936","CLASSIFICATION_TYPE":"U","COUNTRY_CODE":"US","TIME_SYSTEM":"UTC","OBJECT_NAME":"STARLINK-3182","APOAPSIS":"349.862","PERIAPSIS":"348.299","RCS_SIZE":"MEDIUM","RA_OF_ASC_NODE":"87.3995","ARG_OF_PERICENTER":"51.5356","DECAY_DATE":null,"SEMIMAJOR_AXIS":"6727.216","MEAN_MOTION_DDOT":"0.0000000000000","SITE":"AFETR","CENTER_NAME":"EARTH","MEAN_MOTION_DOT":"-0.00330275","LAUNCH_DATE":"2022-02-03","NORAD_CAT_ID":"51469","OBJECT_TYPE":"PAYLOAD","GP_ID":"196516195","PERIOD":"91.519","MEAN_ANOMALY":"21.8173","INCLINATION":"53.2173","FILE":"3310556","TLE_LINE1":"1 51469U 22010P   22051.91667824 -.00330275  00000-0 -24175-2 0  9996","MEAN_MOTION":"15.73438331","REF_FRAME":"TEME","TLE_LINE2":"2 51469  53.2173  87.3995 0001162  51.5356  21.8173 15.73438331  2084","BSTAR":"-0.00241750000000","ELEMENT_SET_NO":"999","OBJECT_ID":"2022-010P","REV_AT_EPOCH":"208"},{"OBJECT_TYPE":"PAYLOAD","NORAD_CAT_ID":"51471","LAUNCH_DATE":"2022-02-03","PERIOD":"90.771","GP_ID":"196515943","MEAN_MOTION":"15.86414226","TLE_LINE1":"1 51471U 22010R   22051.80638432 -.00346834  00000-0 -14012-2 0  9997","FILE":"3310556","INCLINATION":"53.2121","MEAN_ANOMALY":"335.8467","REV_AT_EPOCH":"352","OBJECT_ID":"2022-010R","BSTAR":"-0.00140120000000","ELEMENT_SET_NO":"999","TLE_LINE2":"2 51471  53.2121  86.7986 0002053  24.2655 335.8467 15.86414226  3527","REF_FRAME":"TEME","EPOCH":"2022-02-20T19:21:11.605248","ECCENTRICITY":"0.00020530","MEAN_ELEMENT_THEORY":"SGP4","EPHEMERIS_TYPE":"0","PERIAPSIS":"310.974","APOAPSIS":"313.721","TIME_SYSTEM":"UTC","OBJECT_NAME":"STARLINK-3165","COUNTRY_CODE":"US","CLASSIFICATION_TYPE":"U","DECAY_DATE":null,"SEMIMAJOR_AXIS":"6690.483","ARG_OF_PERICENTER":"24.2655","RA_OF_ASC_NODE":"86.7986","RCS_SIZE":"MEDIUM","MEAN_MOTION_DOT":"-0.00346834","CENTER_NAME":"EARTH","SITE":"AFETR","MEAN_MOTION_DDOT":"0.0000000000000"},{"TLE_LINE2":"2 51472  53.2175  87.2393 0001406  44.4720 111.5260 15.75104469  2086","REF_FRAME":"TEME","OBJECT_ID":"2022-010S","REV_AT_EPOCH":"208","BSTAR":"-0.00632330000000","ELEMENT_SET_NO":"999","FILE":"3310556","MEAN_ANOMALY":"111.5260","INCLINATION":"53.2175","TLE_LINE1":"1 51472U 22010S   22051.91667824 -.00870546  00000-0 -63233-2 0  9998","MEAN_MOTION":"15.75104469","GP_ID":"196516445","PERIOD":"91.423","LAUNCH_DATE":"2022-02-03","OBJECT_TYPE":"PAYLOAD","NORAD_CAT_ID":"51472","MEAN_MOTION_DDOT":"0.0000000000000","SITE":"AFETR","MEAN_MOTION_DOT":"-0.00870546","CENTER_NAME":"EARTH","ARG_OF_PERICENTER":"44.4720","RCS_SIZE":"MEDIUM","RA_OF_ASC_NODE":"87.2393","DECAY_DATE":null,"SEMIMAJOR_AXIS":"6722.471","OBJECT_NAME":"STARLINK-3415","TIME_SYSTEM":"UTC","COUNTRY_CODE":"US","CLASSIFICATION_TYPE":"U","APOAPSIS":"345.281","PERIAPSIS":"343.391","MEAN_ELEMENT_THEORY":"SGP4","ECCENTRICITY":"0.00014060","EPHEMERIS_TYPE":"0","EPOCH":"2022-02-20T22:00:00.999936"}];
